OUFTI-1                 
1 41458U 16025C   22122.01332146  .00015310  00000+0  65893-3 0  9998
2 41458  98.1826 285.1284 0145608  63.1853 298.4183 15.13540006330554
E-ST@R-II               
1 41459U 16025D   22122.06372757  .00019414  00000+0  85029-3 0  9998
2 41459  98.1814 283.8277 0148616  67.1076 294.5658 15.12568696330482
AAUSAT 4                
1 41460U 16025E   22122.41762970  .00026861  00000+0  10591-2 0  9994
2 41460  98.1743 290.0073 0130511  43.0178 318.0567 15.17924343330953
AIST-2D (RS-48)         
1 41465U 16026B   22122.21650081 -.00001575  00000+0 -37185-4 0  9994
2 41465  97.0617   0.1296 0007787 307.5306 168.5976 15.40285098336414
NUSAT-1 (FRESCO)        
1 41557U 16033B   22122.25420762  .00020324  00000+0  62836-3 0  9990
2 41557  97.3858 219.9221 0012054 176.2519 209.5467 15.33468720330304
NUSAT-2 (BATATA)        
1 41558U 16033C   22122.53333847  .00018954  00000+0  55036-3 0  9999
2 41558  97.4041 225.6485 0011302 164.4630 206.8806 15.35478208330608
CARTOSAT-2C             
1 41599U 16040A   22122.23822458  .00005659  00000+0  27152-3 0  9996
2 41599  97.4910 182.2320 0012848 348.4409  97.4866 15.19210165324913
SATHYABAMASAT           
1 41600U 16040B   22122.10529260  .00019864  00000+0  66066-3 0  9990
2 41600  97.2245 175.6706 0009784 284.8345  75.1813 15.31152875325807
LAPAN-A3                
1 41603U 16040E   22122.51174197  .00002293  00000+0  10768-3 0  9999
2 41603  97.2118 161.5326 0012294 329.4532 167.2200 15.20532080325053
BIROS                   
1 41604U 16040F   22122.50277184  .00003915  00000+0  16452-3 0  9997
2 41604  97.2149 168.6328 0010097 299.1087  60.9140 15.23954687325466
SWAYAM                  
1 41607U 16040J   22122.09692198  .00018345  00000+0  62435-3 0  9995
2 41607  97.2199 174.0390 0009572 286.3502  73.6687 15.30426058325685
BEESAT-4                
1 41619U 16040W   22121.69388771  .00017750  00000+0  61741-3 0  9990
2 41619  97.2214 173.6051 0007923 281.2224  78.8126 15.29737675313576
3CAT-2                  
1 41732U 16051B   22122.34991551  .00017402  00000+0  55525-3 0  9994
2 41732  97.3814  45.5170 0013789  94.9487  24.2838 15.32471447318267
PRATHAM                 
1 41783U 16059A   22122.40884011  .00000570  00000+0  11858-3 0  9996
2 41783  97.9181 165.7972 0032435 321.3203  38.5677 14.63310070298895
ALSAT 1N                
1 41789U 16059G   22122.37351272  .00000816  00000+0  16161-3 0  9991
2 41789  97.9219 170.2245 0026944 304.4843  55.3818 14.64630680299121
LISHUI 1-01             
1 41845U 16066E   22122.12563646  .00022334  00000+0  24494-2 0  9991
2 41845  98.7303 249.7297 0233407 214.0256 144.5867 14.69865925290015
CARTOSAT-2D             
1 41948U 17008A   22122.45397507  .00005948  00000+0  28498-3 0  9990
2 41948  97.4691 182.6304 0007448 125.4002 234.7910 15.19283222288813
NAYIF-1 (EO-88)         
1 42017U 17008BX  22121.72467956  .00021301  00000+0  66833-3 0  9999
2 42017  97.2721 188.5602 0006114  68.6859 291.5036 15.33041169289916
ZHUHAI-1 02 (CAS-4B)    
1 42759U 17034B   22122.52005527  .00006838  00000+0  40854-3 0  9995
2 42759  43.0178 225.8164 0009149 351.7712  73.9566 15.11552842269400
ZHUHAI-1 01 (CAS-4A)    
1 42761U 17034D   22122.49996021  .00007077  00000+0  42124-3 0  9990
2 42761  43.0180 224.7476 0009377 353.5943 112.5186 15.11645886269408
UCLSAT                  
1 42765U 17036A   22121.66801801  .00016446  00000+0  59273-3 0  9998
2 42765  97.2022 165.8220 0011471 127.0062 233.2230 15.28558034270706
NIUSAT                  
1 42766U 17036B   22122.09928795  .00010519  00000+0  41670-3 0  9996
2 42766  97.2064 161.5918 0015690 128.2435 232.0218 15.25475950269730
CARTOSAT-2E             
1 42767U 17036C   22122.49232432  .00006076  00000+0  29079-3 0  9999
2 42767  97.4583 183.5819 0008436 170.7585 297.0875 15.19306194269388
LITUANICASAT-2          
1 42768U 17036D   22122.36113455  .00028000  00000+0  87231-3 0  9994
2 42768  97.2106 168.7765 0013269 114.1956 246.0675 15.33142800270187
AALTO-1                 
1 42775U 17036L   22122.05186717  .00009064  00000+0  36568-3 0  9995
2 42775  97.2021 161.5408 0014404 127.2113 233.0442 15.24922203269705
URSA MAIOR              
1 42776U 17036M   22122.11416053  .00009823  00000+0  39041-3 0  9994
2 42776  97.2034 162.2850 0014154 126.0060 234.2493 15.25406043269742
COMPASS 2               
1 42777U 17036N   22122.11011240  .00020995  00000+0  70483-3 0  9992
2 42777  97.2093 168.0979 0012002 116.5176 243.7297 15.30815537270057
MAX VALIER SAT          
1 42778U 17036P   22121.85023806  .00009846  00000+0  38300-3 0  9998
2 42778  97.2102 164.5661 0012970 127.5333 232.7086 15.26136720269797
PEGASUS                 
1 42784U 17036V   22121.69543782  .00014101  00000+0  52052-3 0  9997
2 42784  97.2038 165.1637 0012166 129.5209 230.7109 15.27796652269873
NUDTSAT                 
1 42787U 17036Y   22121.94740963  .00028346  00000+0  92173-3 0  9992
2 42787  97.2077 169.1780 0011208 120.7826 239.4522 15.31793740269972
SUCHAI                  
1 42788U 17036Z   22121.67621195  .00017726  00000+0  62428-3 0  9998
2 42788  97.2046 166.6569 0011628 126.0568 234.1752 15.29295769270035
SKCUBE                  
1 42789U 17036AA  22121.84835577  .00014203  00000+0  51036-3 0  9999
2 42789  97.2044 166.3404 0011607 125.9507 234.2812 15.28686850269958
VZLUSAT-1               
1 42790U 17036AB  22121.62477138  .00023378  00000+0  76397-3 0  9992
2 42790  97.2068 168.8397 0010628 121.5952 238.6328 15.31678522270078
ROBUSTA-1B              
1 42792U 17036AD  22122.34203270  .00014893  00000+0  52745-3 0  9991
2 42792  97.2040 167.3481 0011203 124.5547 235.6753 15.29154988270072
D-SAT                   
1 42794U 17036AF  22122.02029474  .00002494  00000+0  21601-3 0  9991
2 42794  97.4520 129.8883 0122202 240.2294 118.6726 14.92412397264584
NORSAT 2                
1 42828U 17042D   22121.83856452  .00002464  00000+0  24406-3 0  9991
2 42828  97.4361 340.7887 0014732 154.1340 206.0619 14.92610503261215
TECHNOSAT               
1 42829U 17042E   22122.53972941  .00001796  00000+0  18324-3 0  9991
2 42829  97.4264 339.3473 0014676 155.2296 204.9631 14.91731841261244
2017-042F               
1 42830U 17042F   22122.54060571  .00005083  00000+0  47501-3 0  9993
2 42830  97.4399 343.4460 0014387 145.4875 214.7283 14.94478241261427
FLYING LAPTOP           
1 42831U 17042G   22122.58129522  .00001578  00000+0  16185-3 0  9999
2 42831  97.4295 339.6959 0014359 154.9483 205.2382 14.91684606261259
CORVUS BC2              
1 42846U 17042X   22121.83097370  .00002282  00000+0  22577-3 0  9992
2 42846  97.4292 341.7674 0010379 144.6489 215.5421 14.92760158261324
CORVUS BC1              
1 42847U 17042Y   22122.51810780  .00001049  00000+0  10629-3 0  9992
2 42847  97.4290 342.7135 0010010 141.8270 218.3661 14.92865365261430
SIMPL                   
1 42983U 98067NF  22122.17952021  .00109848  00000+0  41791-3 0  9996
2 42983  51.6329  65.6632 0004985 106.1711 253.9843 15.86729609257567
CZ-4C R/B               
1 43012U 17072C   22122.51417275  .00000424  00000+0  96930-4 0  9998
2 43012  98.7020 156.6440 0128486  97.9564 263.6236 14.56311604237172
RADFXSAT (FOX-1B)       
1 43017U 17073E   22122.50409683  .00005789  00000+0  43963-3 0  9993
2 43017  97.6800  18.5689 0249294 338.6729  20.4234 14.81069068240310
EAGLESAT 1              
1 43018U 17073F   22121.70389954  .00011018  00000+0  80622-3 0  9998
2 43018  97.6830  19.4034 0242698 335.8077  23.1890 14.83079167240168
INS-1C                  
1 43116U 18004F   22122.45371596  .00013644  00000+0  48879-3 0  9993
2 43116  97.3776 198.8359 0009248 149.7139 210.4638 15.28823638239303
FLOCK 3P'-3             
1 43119U 18004J   22121.77155852  .00007837  00000+0  30169-3 0  9995
2 43119  97.3770 196.3804 0010153 160.4943 199.6686 15.26596492239098
FLOCK 3P'-2             
1 43120U 18004K   22121.63281286  .00010814  00000+0  42184-3 0  9992
2 43120  97.3778 195.8870 0009934 163.4554 196.7010 15.26060749239046
FLOCK 3P'-1             
1 43121U 18004L   22121.75448745  .00027123  00000+0  82205-3 0  9990
2 43121  97.3788 200.2307 0008705 149.3811 210.7941 15.34076493239275
FLOCK 3P'-4             
1 43122U 18004M   22121.68514526  .00008600  00000+0  33583-3 0  9998
2 43122  97.3784 196.1018 0009944 164.2957 195.8592 15.26091613239050
MICROMAS-2A             
1 43131U 18004W   22121.74806854  .00026365  00000+0  80274-3 0  9990
2 43131  97.3773 200.9900 0008111 151.6214 208.5472 15.33941504239413
PICSAT                  
1 43132U 18004X   22121.75559931  .00016830  00000+0  57970-3 0  9996
2 43132  97.3735 198.4292 0008982 157.3908 202.7730 15.30062224239262
CNUSAIL-1               
1 43133U 18004Y   22122.13785381  .00010774  00000+0  39960-3 0  9990
2 43133  97.3695 197.0046 0009363 159.0328 201.1297 15.27739906239219
2018-004Z               
1 43134U 18004Z   22122.44214723  .00012961  00000+0  46091-3 0  9995
2 43134  97.3718 198.4799 0009005 156.5131 203.6522 15.29080212239324
FOX-1D (AO-92)          
1 43137U 18004AC  22121.75863373  .00012217  00000+0  44377-3 0  9991
2 43137  97.3705 197.3638 0008773 159.4597 200.6997 15.28400704239214
STEP CUBE LAB           
1 43138U 18004AD  22121.75150937  .00021613  00000+0  68940-3 0  9999
2 43138  97.3770 200.5033 0008264 155.1209 205.0433 15.32496525239384
XIAOXIANG-2             
1 43155U 18008A   22122.25653890  .00010657  00000+0  57771-3 0  9990
2 43155  97.3568 182.1509 0014915 308.3846  92.2521 15.14665736236282
ZHOU ENLAI              
1 43156U 18008B   22122.20705400  .00011574  00000+0  63225-3 0  9991
2 43156  97.3620 181.9668 0012252 309.2489 137.8252 15.14401910236201
QUANTUTONG 1            
1 43158U 18008D   22122.15508483  .00009799  00000+0  54996-3 0  9990
2 43158  97.3586 179.9875 0011762 312.5849 106.2066 15.13485459236104
